ION SCV-008             
1 55051U 23001AU  26068.82429008  .00008336  00000+0  31423-3 0  9992
2 55051  97.5676 163.6060 0015192   8.5420 351.6074 15.27226640176169
STARLINK-30713          
1 57952U 23148T   26068.16066212  .00005251  00000+0  18932-3 0  9990
2 57952  53.1601  26.5766 0001236  69.2154 290.8980 15.30192059138347
